{
  "type": "FeatureCollection",
  "features": [
    {
      "type": "Feature",
      "properties": {
        "norad_id": 41589,
        "name": "EUTELSAT 117 WEST B (WAAS/PRN 131)",
        "group": "gnss",
        "lat": 0.0049785211027376765,
        "lon": -166.3861529634486,
        "alt_km": 35786.04317492073,
        "timestamp": "2025-12-19T14:48:36.490292+00:00",
        "meta_object_name": "EUTELSAT 117 WEST B (WAAS/PRN 131)",
        "meta_object_id": "2016-038B",
        "meta_epoch": "2025-12-19T00:43:26.441760",
        "meta_mean_motion": 1.00272207,
        "meta_eccentricity": 4.142e-05,
        "meta_inclination": 0.0149,
        "meta_ra_of_asc_node": 154.1508,
        "meta_arg_of_pericenter": 133.0163,
        "meta_mean_anomaly": 54.5907,
        "meta_ephemeris_type": 0,
        "meta_classification_type": "U",
        "meta_norad_cat_id": 41589,
        "meta_element_set_no": 999,
        "meta_rev_at_epoch": 3485,
        "meta_bstar": 0,
        "meta_mean_motion_dot": 1.3e-07,
        "meta_mean_motion_ddot": 0,
        "tle_line1": "1 41589U 16038B   25353.03016715  .00000013  00000+0  00000+0 0  9998",
        "tle_line2": "2 41589   0.0149 154.1508 0000414 133.0163  54.5907  1.00272207 34854"
      },
      "geometry": {
        "type": "Point",
        "coordinates": [
          -166.3861529634486,
          0.0049785211027376765
        ]
      }
    },
    {
      "type": "Feature",
      "properties": {
        "norad_id": 41859,
        "name": "GSAT0207 (GALILEO 15)",
        "group": "gnss",
        "lat": -35.42608315322232,
        "lon": -44.56441735260152,
        "alt_km": 23226.98501539473,
        "timestamp": "2025-12-19T14:48:36.490304+00:00",
        "meta_object_name": "GSAT0207 (GALILEO 15)",
        "meta_object_id": "2016-069A",
        "meta_epoch": "2025-12-19T06:01:13.799424",
        "meta_mean_motion": 1.70474539,
        "meta_eccentricity": 0.00023551,
        "meta_inclination": 55.3858,
        "meta_ra_of_asc_node": 106.07,
        "meta_arg_of_pericenter": 318.8542,
        "meta_mean_anomaly": 41.0896,
        "meta_ephemeris_type": 0,
        "meta_classification_type": "U",
        "meta_norad_cat_id": 41859,
        "meta_element_set_no": 999,
        "meta_rev_at_epoch": 5633,
        "meta_bstar": 0,
        "meta_mean_motion_dot": -6e-08,
        "meta_mean_motion_ddot": 0,
        "tle_line1": "1 41859U 16069A   25353.25085416 -.00000006  00000+0  00000+0 0  9993",
        "tle_line2": "2 41859  55.3858 106.0700 0002355 318.8542  41.0896  1.70474539 56338"
      },
      "geometry": {
        "type": "Point",
        "coordinates": [
          -44.56441735260152,
          -35.42608315322232
        ]
      }
    },
    {
      "type": "Feature",
      "properties": {
        "norad_id": 41860,
        "name": "GSAT0212 (GALILEO 16)",
        "group": "gnss",
        "lat": -35.898400049920504,
        "lon": 76.09221888552123,
        "alt_km": 23224.120845575882,
        "timestamp": "2025-12-19T14:48:36.490315+00:00",
        "meta_object_name": "GSAT0212 (GALILEO 16)",
        "meta_object_id": "2016-069B",
        "meta_epoch": "2025-12-18T12:25:48.697536",
        "meta_mean_motion": 1.70474692,
        "meta_eccentricity": 0.00020646,
        "meta_inclination": 55.3831,
        "meta_ra_of_asc_node": 106.0857,
        "meta_arg_of_pericenter": 21.766,
        "meta_mean_anomaly": 338.2025,
        "meta_ephemeris_type": 0,
        "meta_classification_type": "U",
        "meta_norad_cat_id": 41860,
        "meta_element_set_no": 999,
        "meta_rev_at_epoch": 5657,
        "meta_bstar": 0,
        "meta_mean_motion_dot": -8e-08,
        "meta_mean_motion_ddot": 0,
        "tle_line1": "1 41860U 16069B   25352.51792474 -.00000008  00000+0  00000+0 0  9994",
        "tle_line2": "2 41860  55.3831 106.0857 0002064  21.7660 338.2025  1.70474692 56573"
      },
      "geometry": {
        "type": "Point",
        "coordinates": [
          76.09221888552123,
          -35.898400049920504
        ]
      }
    },
    {
      "type": "Feature",
      "properties": {
        "norad_id": 41861,
        "name": "GSAT0213 (GALILEO 17)",
        "group": "gnss",
        "lat": 55.391311915202984,
        "lon": -165.68922516900417,
        "alt_km": 23223.135802298722,
        "timestamp": "2025-12-19T14:48:36.490347+00:00",
        "meta_object_name": "GSAT0213 (GALILEO 17)",
        "meta_object_id": "2016-069C",
        "meta_epoch": "2025-12-17T17:05:43.699776",
        "meta_mean_motion": 1.70474994,
        "meta_eccentricity": 0.000259,
        "meta_inclination": 55.385,
        "meta_ra_of_asc_node": 106.1156,
        "meta_arg_of_pericenter": 282.1972,
        "meta_mean_anomaly": 77.7328,
        "meta_ephemeris_type": 0,
        "meta_classification_type": "U",
        "meta_norad_cat_id": 41861,
        "meta_element_set_no": 999,
        "meta_rev_at_epoch": 5642,
        "meta_bstar": 0,
        "meta_mean_motion_dot": -9e-08,
        "meta_mean_motion_ddot": 0,
        "tle_line1": "1 41861U 16069C   25351.71231134 -.00000009  00000+0  00000+0 0  9998",
        "tle_line2": "2 41861  55.3850 106.1156 0002590 282.1972  77.7328  1.70474994 56421"
      },
      "geometry": {
        "type": "Point",
        "coordinates": [
          -165.68922516900417,
          55.391311915202984
        ]
      }
    },
    {
      "type": "Feature",
      "properties": {
        "norad_id": 41862,
        "name": "GSAT0214 (GALILEO 18)",
        "group": "gnss",
        "lat": -0.49418501494820527,
        "lon": 105.70647774480354,
        "alt_km": 23220.873904919987,
        "timestamp": "2025-12-19T14:48:36.490359+00:00",
        "meta_object_name": "GSAT0214 (GALILEO 18)",
        "meta_object_id": "2016-069D",
        "meta_epoch": "2025-12-17T20:35:58.649280",
        "meta_mean_motion": 1.70474854,
        "meta_eccentricity": 0.00015422,
        "meta_inclination": 55.383,
        "meta_ra_of_asc_node": 106.1044,
        "meta_arg_of_pericenter": 289.1766,
        "meta_mean_anomaly": 70.7658,
        "meta_ephemeris_type": 0,
        "meta_classification_type": "U",
        "meta_norad_cat_id": 41862,
        "meta_element_set_no": 999,
        "meta_rev_at_epoch": 5655,
        "meta_bstar": 0,
        "meta_mean_motion_dot": -9e-08,
        "meta_mean_motion_ddot": 0,
        "tle_line1": "1 41862U 16069D   25351.85831770 -.00000009  00000+0  00000+0 0  9996",
        "tle_line2": "2 41862  55.3830 106.1044 0001542 289.1766  70.7658  1.70474854 56558"
      },
      "geometry": {
        "type": "Point",
        "coordinates": [
          105.70647774480354,
          -0.49418501494820527
        ]
      }
    },
    {
      "type": "Feature",
      "properties": {
        "norad_id": 42709,
        "name": "SES-15 (WAAS/PRN 133)",
        "group": "gnss",
        "lat": -0.009925747185245505,
        "lon": -178.55312954936895,
        "alt_km": 35782.804810460926,
        "timestamp": "2025-12-19T14:48:36.490371+00:00",
        "meta_object_name": "SES-15 (WAAS/PRN 133)",
        "meta_object_id": "2017-026A",
        "meta_epoch": "2025-12-18T22:57:14.116032",
        "meta_mean_motion": 1.00274753,
        "meta_eccentricity": 5.745e-05,
        "meta_inclination": 0.0175,
        "meta_ra_of_asc_node": 346.8441,
        "meta_arg_of_pericenter": 200.6148,
        "meta_mean_anomaly": 115.4976,
        "meta_ephemeris_type": 0,
        "meta_classification_type": "U",
        "meta_norad_cat_id": 42709,
        "meta_element_set_no": 999,
        "meta_rev_at_epoch": 562,
        "meta_bstar": 0,
        "meta_mean_motion_dot": 8.4e-07,
        "meta_mean_motion_ddot": 0,
        "tle_line1": "1 42709U 17026A   25352.95641338  .00000084  00000+0  00000+0 0  9994",
        "tle_line2": "2 42709   0.0175 346.8441 0000574 200.6148 115.4976  1.00274753  5629"
      },
      "geometry": {
        "type": "Point",
        "coordinates": [
          -178.55312954936895,
          -0.009925747185245505
        ]
      }
    },
    {
      "type": "Feature",
      "properties": {
        "norad_id": 42738,
        "name": "QZS-2 (QZSS/PRN 194)",
        "group": "gnss",
        "lat": -11.862012759599653,
        "lon": 80.4586866142277,
        "alt_km": 34529.374623518044,
        "timestamp": "2025-12-19T14:48:36.490383+00:00",
        "meta_object_name": "QZS-2 (QZSS/PRN 194)",
        "meta_object_id": "2017-028A",
        "meta_epoch": "2025-12-18T13:55:30.556128",
        "meta_mean_motion": 1.00281517,
        "meta_eccentricity": 0.07566042,
        "meta_inclination": 39.7045,
        "meta_ra_of_asc_node": 245.7969,
        "meta_arg_of_pericenter": 269.5406,
        "meta_mean_anomaly": 282.9842,
        "meta_ephemeris_type": 0,
        "meta_classification_type": "U",
        "meta_norad_cat_id": 42738,
        "meta_element_set_no": 999,
        "meta_rev_at_epoch": 581,
        "meta_bstar": 0,
        "meta_mean_motion_dot": -1.25e-06,
        "meta_mean_motion_ddot": 0,
        "tle_line1": "1 42738U 17028A   25352.58021477 -.00000125  00000+0  00000+0 0  9990",
        "tle_line2": "2 42738  39.7045 245.7969 0756604 269.5406 282.9842  1.00281517  5810"
      },
      "geometry": {
        "type": "Point",
        "coordinates": [
          80.4586866142277,
          -11.862012759599653
        ]
      }
    }
  ]
}